CUTE-1 (CO-55)          
1 27844U 03031E   22156.82026562  .00000147  00000+0  85347-4 0  9991
2 27844  98.6783 164.6826 0010815 131.0924 229.1189 14.22448411982255
CUBESAT XI-IV (CO-57)   
1 27848U 03031J   22156.49817412  .00000120  00000+0  73909-4 0  9992
2 27848  98.6829 164.8874 0010439 144.9892 215.1974 14.22005848982018
CUBESAT XI-V            
1 28895U 05043F   22156.35584486  .00000536  00000+0  11039-3 0  9993
2 28895  98.1051 287.9220 0016869 174.9892 185.1482 14.64326172885879
CUTE-1.7+APD II (CO-65) 
1 32785U 08021C   22156.87622212  .00001078  00000+0  11858-3 0  9993
2 32785  97.6566 128.0924 0010963 273.1645  86.8318 14.89556015764835
AAUSAT-II               
1 32788U 08021F   22156.47621207  .00001878  00000+0  16624-3 0  9999
2 32788  97.5328 142.2176 0011667 155.7391 204.4383 14.97391179766744
DELFI-C3 (DO-64)        
1 32789U 08021G   22155.52568644  .00006882  00000+0  38700-3 0  9999
2 32789  97.3393 182.2940 0010416  21.9627 338.2049 15.13534933769974
SEEDS II (CO-66)        
1 32791U 08021J   22156.17515238  .00001343  00000+0  13571-3 0  9991
2 32791  97.6108 132.9216 0011358 225.6892 134.3397 14.92613821765444
SWISSCUBE               
1 35932U 09051B   22156.49436341  .00000373  00000+0  94060-4 0  9992
2 35932  98.5700  12.0984 0008789  84.7821 275.4379 14.56851012674398
BEESAT-1                
1 35933U 09051C   22156.86164358  .00000315  00000+0  81227-4 0  9997
2 35933  98.5641  14.1135 0006985  94.4626 265.7369 14.56869178674563
ITUPSAT1                
1 35935U 09051E   22155.84115564  .00000290  00000+0  77049-4 0  9990
2 35935  98.5743  13.1243 0009258 100.1626 260.0615 14.55978532674047
TISAT 1                 
1 36799U 10035E   22156.52174376  .00001622  00000+0  16242-3 0  9992
2 36799  98.1836   6.4970 0012861 130.9542 229.2791 14.92838395646188
M-CUBED & EXP-1 PRIME   
1 37855U 11061F   22156.52889238  .00008685  00000+0  38366-3 0  9993
2 37855 101.7078 269.3023 0153911  98.2857 263.5843 15.12134013579900
AEROCUBE 4.5A           
1 38767U 12048K   22156.47566299  .00002118  00000+0  15610-3 0  9997
2 38767  64.6636 148.4591 0176514 265.8530  92.2393 14.94769921148990
AEROCUBE 4.5B           
1 38768U 12048L   22156.32871966  .00002993  00000+0  19604-3 0  9990
2 38768  64.6656 103.7577 0163984 261.2504  97.0010 14.99469557149334
STRAND-1                
1 39090U 13009E   22155.47201636  .00000012  00000+0  19190-4 0  9994
2 39090  98.4050 353.9479 0008186 316.3806  43.6732 14.35294595485536
BRITE-AUSTRIA           
1 39091U 13009F   22156.50229347  .00000052  00000+0  33123-4 0  9995
2 39091  98.4067 354.1181 0009636 319.1566  40.8897 14.35271710485729
SOMP                    
1 39134U 13015E   22156.58892747  .00008945  00000+0  32567-3 0  9997
2 39134  64.8616 100.8219 0034484 282.4708  77.2566 15.28218546505429
BEESAT-3                
1 39135U 13015F   22156.18391290  .00005965  00000+0  25170-3 0  9992
2 39135  64.8654 137.9077 0037463 289.4386  70.2696 15.23624438504673
BEESAT-2                
1 39136U 13015G   22155.69875227  .00005527  00000+0  24416-3 0  9991
2 39136  64.8734 147.5611 0015537 297.3348  62.6199 15.22661004503972
NEE-01 PEGASO           
1 39151U 13018B   22156.55228139  .00000686  00000+0  95496-4 0  9999
2 39151  97.9904 262.2563 0015522 295.5846  64.3761 14.80912769491928
ESTCUBE 1               
1 39161U 13021C   22156.80631442  .00000797  00000+0  13188-3 0  9997
2 39161  97.9084 234.3455 0010649  97.1911 263.0501 14.72932275487753
POPACS 1                
1 39268U 13055D   22156.24418217  .00008608  00000+0  22189-3 0  9993
2 39268  80.9979 252.6194 0572908 237.3184 117.1525 14.49865143453009
POPACS 2                
1 39269U 13055E   22156.84668583  .00004851  00000+0  13216-3 0  9990
2 39269  81.0114 308.4316 0647949  21.9804 340.7857 14.32800361449744
POPACS 3                
1 39270U 13055F   22156.76491017  .00006367  00000+0  19059-3 0  9994
2 39270  81.0147 341.1635 0690752 114.6238 252.8487 14.21744584447675
ZACUBE-1 (TSHEPISOSAT)  
1 39417U 13066B   22156.48678330  .00001175  00000+0  14899-3 0  9992
2 39417  97.6357 128.5255 0059577  84.0260 276.7739 14.82295141461351
WNISAT-1                
1 39423U 13066H   22156.66010237  .00000320  00000+0  72217-4 0  9995
2 39423  97.7549  39.0087 0174310 174.2896 186.0345 14.53472935452735
TRITON-1                
1 39427U 13066M   22156.75484392  .00000863  00000+0  14268-3 0  9999
2 39427  97.8130  93.0588 0110635 302.6333  56.4234 14.68945715457251
DELFI-N3XT              
1 39428U 13066N   22156.53968428  .00001576  00000+0  24986-3 0  9993
2 39428  97.8143  91.4097 0116455 316.7047  42.5052 14.69143628456962
GOMX-1                  
1 39430U 13066Q   22156.87392796  .00000955  00000+0  17768-3 0  9992
2 39430  97.8114  64.7355 0150787  81.4571 280.3680 14.60153091454601
CUBEBUG-2 (LO-74)       
1 39440U 13066AA  22156.12559768  .00000722  00000+0  10446-3 0  9993
2 39440  97.7254 114.2026 0078961 170.3135 189.9620 14.76971740459664
NEE-02 KRYSAOR          
1 39441U 13066AB  22156.38853867  .00000474  00000+0  73072-4 0  9998
2 39441  97.7365 111.6471 0080454 182.9855 177.0886 14.75719039459416
FUNCUBE-1 (AO-73)       
1 39444U 13066AE  22156.17491567  .00001478  00000+0  18123-3 0  9993
2 39444  97.6236 130.6314 0058413  73.6922 287.0706 14.83367480460292
UWE-3                   
1 39446U 13066AG  22155.62780304  .00000927  00000+0  12565-3 0  9996
2 39446  97.6846 120.2475 0069950 130.2257 230.5104 14.79521898458565
AEROCUBE 5A             
1 39465U 13072D   22156.82102238  .00015664  00000+0  96211-3 0  9995
2 39465 120.4844 269.0983 0197661 265.7118  92.1335 14.95567587147887
AEROCUBE 5B             
1 39466U 13072E   22156.80214106  .00034849  00000+0  13849-2 0  9993
2 39466 120.4621 353.9407 0147964 288.4944  70.0100 15.15537460148960
BRITE-CA1 (TORONTO)     
1 40020U 14033L   22156.68587371  .00000282  00000+0  56178-4 0  9990
2 40020  97.7773 316.2451 0085598 301.5007  57.7855 14.67027876426042
DUCHIFAT-1              
1 40021U 14033M   22156.40919392  .00002427  00000+0  24002-3 0  9996
2 40021  98.0121 106.3928 0014374  81.6888 278.5960 14.92795753432904
NANOSATC-BR1            
1 40024U 14033Q   22156.80744793  .00001678  00000+0  17256-3 0  9994
2 40024  97.9853 100.2290 0013631  85.9559 274.3217 14.91657965432763
QB50P1                  
1 40025U 14033R   22155.77021920  .00001489  00000+0  15841-3 0  9998
2 40025  97.9603  93.0717 0013821  97.6078 262.6710 14.90446282431873
QB50P2                  
1 40032U 14033Y   22156.05949862  .00001128  00000+0  12309-3 0  9998
2 40032  97.9379  88.7907 0013299  94.7737 265.4999 14.89878763432290
PERSEUS-M2              
1 40037U 14033AD  22155.58936047  .00000505  00000+0  62381-4 0  9995
2 40037  97.8969  77.8837 0015600 117.3032 242.9775 14.87080428431212
PERSEUS-M1              
1 40039U 14033AF  22156.18649869  .00000469  00000+0  58862-4 0  9995
2 40039  97.8873  76.2633 0015489 114.6481 245.6350 14.86691283431695
POLYITAN-1              
1 40042U 14033AJ  22156.38884663  .00001736  00000+0  18352-3 0  9991
2 40042  97.9706  94.8690 0016077  88.6104 271.6955 14.90455864432363
TIGRISAT                
1 40043U 14033AK  22156.08476904  .00000616  00000+0  96330-4 0  9993
2 40043  97.6567 346.0135 0058901 195.1950 164.7493 14.74982715428105
AEROCUBE 6A             
1 40045U 14033AM  22156.13371369  .00000684  00000+0  10305-3 0  9992
2 40045  97.6675 354.7833 0056710 182.7983 177.2918 14.76364996428201
AEROCUBE 6B             
1 40046U 14033AN  22156.11350297  .00001148  00000+0  16707-3 0  9996
2 40046  97.6586 353.2363 0055850 181.1989 178.9097 14.76672906428342
UKUBE-1                 
1 40074U 14037F   22156.89972465  .00001301  00000+0  15812-3 0  9990
2 40074  98.3843  36.9651 0004075 344.5023  15.5997 14.85365856428358
BRITE-PL2 (HEWELIUSZ)   
1 40119U 14049B   22156.21610827  .00000536  00000+0  68954-4 0  9995
2 40119  97.8829 251.9673 0015818 283.1332  76.8117 14.85107340422289
FIREBIRD 4              
1 40378U 15003C   22155.83238574  .00011499  00000+0  34658-3 0  9998
2 40378  99.1024  18.1402 0102416  68.1288 293.0800 15.29442025406491
GRIFEX                  
1 40379U 15003D   22156.82375788  .00007504  00000+0  26770-3 0  9996
2 40379  99.1134   5.4005 0117433 106.2157 255.2033 15.22914260405862
CP10 (EXOCUBE)          
1 40380U 15003E   22156.04408333  .00006173  00000+0  23926-3 0  9996
2 40380  99.1220 357.3535 0124947 132.3241 228.8657 15.19623338405282
TIANWANG 1A (TW-1A)     
1 40928U 15051D   22156.82135252  .00027885  00000+0  35987-3 0  9993
2 40928  97.0391 179.5822 0009670  80.1847  94.2980 15.58895680376427
EXACTVIEW 9             
1 40936U 15052G   22156.35970226  .00001179  00000+0  74278-4 0  9994
2 40936   6.0031 259.8856 0010486 342.3985  17.5779 14.77138609361462
AEROCUBE 5C             
1 40965U 15058B   22155.64114776  .00000437  00000+0  65727-4 0  9998
2 40965  64.7757 130.2308 0194574 204.3672 154.8143 14.75584659147072
AEROCUBE 7              
1 40966U 15058C   22155.64441573  .00000583  00000+0  80708-4 0  9995
2 40966  64.7758 127.4509 0192635 204.0393 155.1632 14.76127137147070
ATHENOXAT 1             
1 41168U 15077C   22156.35701161  .00009219  00000+0  37251-3 0  9991
2 41168  14.9799 180.0933 0009025  71.4092  35.4273 15.20751239358469
GALASSIA                
1 41170U 15077E   22156.12436418  .00005778  00000+0  22547-3 0  9997
2 41170  14.9867 172.5071 0010820  96.6124 263.5429 15.20142577358508
VELOX-II                
1 41171U 15077F   22156.40821908  .00004731  00000+0  20561-3 0  9993
2 41171  14.9905 243.0222 0007734 300.1464  59.8091 15.15638578357846
HORYU-4                 
1 41340U 16012D   22156.48685622  .00002170  00000+0  14986-3 0  9999
2 41340  31.0050  75.5444 0013008  80.9193 279.2915 15.03255855345921
